{
    "links": {
        "self": "http://www.neowsapp.com/rest/v1/neo/3670146?api_key=iIulBulltgU6a56xZRHN4H3l9WmuAYTsLGpBGhQ2"
    },
    "id": "3670146",
    "neo_reference_id": "3670146",
    "name": "(2014 HT178)",
    "designation": "2014 HT178",
    "nasa_jpl_url": "http://ssd.jpl.nasa.gov/sbdb.cgi?sstr=3670146",
    "absolute_magnitude_h": 26.5,
    "estimated_diameter": {
        "kilometers": {
            "estimated_diameter_min": 0.0133215567,
            "estimated_diameter_max": 0.0297879063
        },
        "meters": {
            "estimated_diameter_min": 13.3215566698,
            "estimated_diameter_max": 29.7879062798
        },
        "miles": {
            "estimated_diameter_min": 0.008277629,
            "estimated_diameter_max": 0.0185093411
        },
        "feet": {
            "estimated_diameter_min": 43.7058959846,
            "estimated_diameter_max": 97.7293544391
        }
    },
    "is_potentially_hazardous_asteroid": false,
    "close_approach_data": [
        {
            "close_approach_date": "2014-02-25",
            "close_approach_date_full": "2014-Feb-25 14:01",
            "epoch_date_close_approach": 1393336860000,
            "relative_velocity": {
                "kilometers_per_second": "13.7109296763",
                "kilometers_per_hour": "49359.3468348269",
                "miles_per_hour": "30669.9785930067"
            },
            "miss_distance": {
                "astronomical": "0.0906671669",
                "lunar": "35.2695279241",
                "kilometers": "13563615.047174503",
                "miles": "8428039.5769260214"
            },
            "orbiting_body": "Mars"
        },
        {
            "close_approach_date": "2014-05-08",
            "close_approach_date_full": "2014-May-08 11:30",
            "epoch_date_close_approach": 1399548600000,
            "relative_velocity": {
                "kilometers_per_second": "14.5026200611",
                "kilometers_per_hour": "52209.4322198617",
                "miles_per_hour": "32440.9108146135"
            },
            "miss_distance": {
                "astronomical": "0.0152203547",
                "lunar": "5.9207179783",
                "kilometers": "2276932.643764489",
                "miles": "1414820.3387443882"
            },
            "orbiting_body": "Earth"
        }
    ],
    "orbital_data": {
        "orbit_id": "7",
        "orbit_determination_date": "2018-02-10 07:05:43",
        "first_observation_date": "2014-04-23",
        "last_observation_date": "2014-05-03",
        "data_arc_in_days": 10,
        "observations_used": 33,
        "orbit_uncertainty": "9",
        "minimum_orbit_intersection": ".0111408",
        "jupiter_tisserand_invariant": "3.216",
        "epoch_osculation": "2456774.5",
        "eccentricity": ".6379622514872565",
        "semi_major_axis": "2.391325315690587",
        "inclination": "4.705614979491818",
        "ascending_node_longitude": "41.17428869157769",
        "orbital_period": "1350.692284743643",
        "perihelion_distance": ".8657500332541458",
        "perihelion_argument": "238.5470018210649",
        "aphelion_distance": "3.916900598127028",
        "perihelion_time": "2456822.736911743128",
        "mean_anomaly": "347.1434164363929",
        "mean_motion": ".2665299891516941",
        "equinox": "J2000",
        "orbit_class": {
            "orbit_class_type": "APO",
            "orbit_class_description": "Near-Earth asteroid orbits which cross the Earth’s orbit similar to that of 1862 Apollo",
            "orbit_class_range": "a (semi-major axis) > 1.0 AU; q (perihelion) < 1.017 AU"
        }
    },
    "is_sentry_object": false
}